     3.04           N: GNSS NAV DATA    S: SBAS             RINEX VERSION / TYPE
SBAS2RINEX 3.0      CNES                20031018 140100     PGM / RUN BY / DATE
EXAMPLE OF VERSION 3.04 FORMAT                              COMMENT
SBUT  -.1331791282D-06 -.107469589D-12 552960 1025 EGNOS  5 TIME SYSTEM CORR
    13                                                      LEAP SECONDS
This file contains navigation message data from a SBAS      COMMENT
(geostationary) satellite, here AOR-W (PRN 122 = # S22)     COMMENT
                                                            END OF HEADER
S22 2003 10 18  0  1  4-1.005828380585D-07 6.366462912410D-12 5.184420000000D+05
     2.482832392000D+04-3.593750000000D-04-1.375000000000D-07 0.000000000000D+00
    -3.408920872000D+04-1.480625000000D-03-5.000000000000D-08 4.000000000000D+00
    -1.650560000000D+01 8.360000000000D-04 6.250000000000D-08 2.300000000000D+01
S22 2003 10 18  0  5 20-9.872019290924D-08 5.456968210638D-12 5.186940000000D+05
     2.482822744000D+04-3.962500000000D-04-1.375000000000D-07 0.000000000000D+00
    -3.408958936000D+04-1.492500000000D-03-5.000000000000D-08 4.000000000000D+00
    -1.628960000000D+01 8.520000000000D-04 6.250000000000D-08 2.400000000000D+01
S22 2003 10 18  0  9 36-9.732320904732D-08 4.547473508865D-12 5.189510000000D+05
     2.482812152000D+04-4.325000000000D-04-1.375000000000D-07 0.000000000000D+00
    -3.408997304000D+04-1.505000000000D-03-5.000000000000D-08 4.000000000000D+00
    -1.606960000000D+01 8.800000000000D-04 6.250000000000D-08 2.500000000000D+01
S22 2003 10 18  0 13 52-9.592622518539D-08 4.547473508865D-12 5.192110000000D+05
     2.482800632000D+04-4.681250000000D-04-1.375000000000D-07 0.000000000000D+00
    -3.409035992000D+04-1.518125000000D-03-3.750000000000D-08 4.000000000000D+00
    -1.584240000000D+01 8.960000000000D-04 6.250000000000D-08 2.600000000000D+01
